NORAD_CAT_ID,OBJECT_NAME,OBJECT_TYPE,EPOCH,MEAN_MOTION,ECCENTRICITY,INCLINATION,RA_OF_ASC_NODE,ARG_OF_PERICENTER,MEAN_ANOMALY,BSTAR,MEAN_MOTION_DOT,MEAN_MOTION_DDOT,TLE_LINE0,TLE_LINE1,TLE_LINE2,SEMIMAJOR_AXIS,PERIOD,APOGEE,PERIGEE,DECAYED
52857.0,STARLINK-4199,PAYLOAD,2023-09-20 00:30:34,15.08853665,0.0001255,53.2153,111.8634,94.0187,266.0949,0.00024045,3.542e-05,0.0,0 STARLINK-4199,1 52857U 22062AD  23263.02123332  .00003542  00000-0  24045-3 0  9993,2 52857  53.2153 111.8634 0001255  94.0187 266.0949 15.08853665 69800,6917.839,95.437,540.572,538.835,0.0
52857.0,STARLINK-4199,PAYLOAD,2023-09-20 17:59:50,15.0881922,0.0001274,53.2149,108.5929,105.8122,254.301,-0.0001664,-2.934e-05,0.0,0 STARLINK-4199,1 52857U 22062AD  23263.74988737 -.00002934  00000-0 -16640-3 0  9998,2 52857  53.2149 108.5929 0001274 105.8122 254.3010 15.08819220 70402,6917.944,95.439,540.69,538.928,0.0
52857.0,STARLINK-4199,PAYLOAD,2023-09-20 21:10:36,15.08815833,0.0001291,53.2151,107.9988,108.136,251.9772,-0.00017865,-3.128e-05,0.0,0 STARLINK-4199,1 52857U 22062AD  23263.88237078 -.00003128  00000-0 -17865-3 0  9994,2 52857  53.2151 107.9988 0001291 108.1360 251.9772 15.08815833 69932,6917.954,95.439,540.712,538.926,0.0
52857.0,STARLINK-4199,PAYLOAD,2023-09-20 22:46:00,15.08821195,0.0001269,53.2153,107.7015,102.3551,257.7583,-0.00025941,-4.412e-05,0.0,0 STARLINK-4199,1 52857U 22062AD  23263.94861145 -.00004412  00000-0 -25941-3 0  9990,2 52857  53.2153 107.7015 0001269 102.3551 257.7583 15.08821195 69949,6917.938,95.439,540.681,538.925,0.0
52857.0,STARLINK-4199,PAYLOAD,2023-09-21 22:36:46,15.08852935,0.0001312,53.2168,103.2384,80.9515,279.1625,0.00031744,4.77e-05,0.0,0 STARLINK-4199,1 52857U 22062AD  23264.94220312  .00004770  00000-0  31744-3 0  9999,2 52857  53.2168 103.2384 0001312  80.9515 279.1625 15.08852935 70094,6917.841,95.437,540.613,538.798,0.0
52857.0,STARLINK-4199,PAYLOAD,2023-09-22 12:55:15,15.08840044,9.32e-05,53.2156,100.5638,102.465,257.6447,0.00029779,4.455e-05,0.0,0 STARLINK-4199,1 52857U 22062AD  23265.53837272  .00004455  00000-0  29779-3 0  9999,2 52857  53.2156 100.5638 0000932 102.4650 257.6447 15.08840044 70181,6917.88,95.438,540.39,539.101,0.0
52857.0,STARLINK-4199,PAYLOAD,2023-09-22 17:41:24,15.08846234,0.0001152,53.2158,99.6718,104.4964,255.6156,0.00033866,5.107e-05,0.0,0 STARLINK-4199,1 52857U 22062AD  23265.73709121  .00005107  00000-0  33866-3 0  9999,2 52857  53.2158  99.6718 0001152 104.4964 255.6156 15.08846234 70705,6917.861,95.437,540.523,538.929,0.0
52857.0,STARLINK-4199,PAYLOAD,2023-09-22 20:52:10,15.08850248,0.0001101,53.2154,99.0775,91.5234,268.5884,0.00040211,6.119e-05,0.0,0 STARLINK-4199,1 52857U 22062AD  23265.86956968  .00006119  00000-0  40211-3 0  9992,2 52857  53.2154  99.0775 0001101  91.5234 268.5884 15.08850248 70237,6917.849,95.437,540.476,538.952,0.0
52857.0,STARLINK-4199,PAYLOAD,2023-09-23 19:07:34,15.08844603,0.0001156,53.2158,94.9142,90.5337,269.5788,-6.3635e-05,-1.301e-05,0.0,0 STARLINK-4199,1 52857U 22062AD  23266.79693076 -.00001301  00000-0 -63635-4 0  9999,2 52857  53.2158  94.9142 0001156  90.5337 269.5788 15.08844603 70867,6917.866,95.437,540.531,538.932,0.0
52857.0,STARLINK-4199,PAYLOAD,2023-09-24 22:09:08,15.08844388,0.0001268,53.2163,89.8572,93.5413,266.5724,0.00010011,1.306e-05,0.0,0 STARLINK-4199,1 52857U 22062AD  23267.92301227  .00001306  00000-0  10011-3 0  9991,2 52857  53.2163  89.8572 0001268  93.5413 266.5724 15.08844388 70547,6917.867,95.437,540.609,538.855,0.0
52857.0,STARLINK-4199,PAYLOAD,2023-09-25 12:27:36,15.08839244,0.0001278,53.2162,87.1803,93.626,266.4879,0.00011921,1.61e-05,0.0,0 STARLINK-4199,1 52857U 22062AD  23268.51917601  .00001610  00000-0  11921-3 0  9995,2 52857  53.2162  87.1803 0001278  93.6260 266.4879 15.08839244 70631,6917.883,95.438,540.632,538.864,0.0
52857.0,STARLINK-4199,PAYLOAD,2023-09-25 18:49:08,15.08853166,0.0001303,53.2156,85.9934,81.2027,278.9113,0.00029768,4.455e-05,0.0,0 STARLINK-4199,1 52857U 22062AD  23268.78412921  .00004455  00000-0  29768-3 0  9997,2 52857  53.2156  85.9934 0001303  81.2027 278.9113 15.08853166 70670,6917.84,95.437,540.607,538.804,0.0
52857.0,STARLINK-4199,PAYLOAD,2023-09-26 17:04:33,15.08834227,0.0001359,53.2162,81.8271,96.1471,263.9676,5.6288e-06,-1.98e-06,0.0,0 STARLINK-4199,1 52857U 22062AD  23269.71149949 -.00000198  00000-0  56288-5 0  9998,2 52857  53.2162  81.8271 0001359  96.1471 263.9676 15.08834227 71301,6917.898,95.438,540.703,538.823,0.0
52857.0,STARLINK-4199,PAYLOAD,2023-09-27 10:33:48,15.08834329,0.0001386,53.2154,78.5606,79.328,280.7868,5.1341e-05,5.29e-06,0.0,0 STARLINK-4199,1 52857U 22062AD  23270.44014332  .00000529  00000-0  51341-4 0  9998,2 52857  53.2154  78.5606 0001386  79.3280 280.7868 15.08834329 70928,6917.898,95.438,540.722,538.804,0.0
52857.0,STARLINK-4199,PAYLOAD,2023-09-27 18:30:44,15.08835189,0.0001379,53.216,77.0736,78.0694,282.0453,2.6482e-05,1.34e-06,0.0,0 STARLINK-4199,1 52857U 22062AD  23270.77134435  .00000134  00000-0  26482-4 0  9991,2 52857  53.2160  77.0736 0001379  78.0694 282.0453 15.08835189 71460,6917.895,95.438,540.714,538.806,0.0
52857.0,STARLINK-4199,PAYLOAD,2023-09-28 15:10:44,15.08844441,0.0001238,53.2156,73.2074,91.1702,268.9431,0.00025108,3.711e-05,0.0,0 STARLINK-4199,1 52857U 22062AD  23271.63246175  .00003711  00000-0  25108-3 0  9999,2 52857  53.2156  73.2074 0001238  91.1702 268.9431 15.08844441 71109,6917.867,95.437,540.588,538.875,0.0
52857.0,STARLINK-4199,PAYLOAD,2023-09-28 18:21:30,15.08848944,0.0001243,53.2153,72.6127,87.8823,272.2311,0.00032894,4.952e-05,0.0,0 STARLINK-4199,1 52857U 22062AD  23271.76494034  .00004952  00000-0  32894-3 0  9990,2 52857  53.2153  72.6127 0001243  87.8823 272.2311 15.08848944 71613,6917.853,95.437,540.578,538.858,0.0
52857.0,STARLINK-4199,PAYLOAD,2023-09-28 19:56:53,15.08850621,0.0001267,53.2153,72.3152,84.8615,275.2522,0.00035408,5.353e-05,0.0,0 STARLINK-4199,1 52857U 22062AD  23271.83117979  .00005353  00000-0  35408-3 0  9998,2 52857  53.2153  72.3152 0001267  84.8615 275.2522 15.08850621 71139,6917.848,95.437,540.589,538.836,0.0
52857.0,STARLINK-4199,PAYLOAD,2023-09-29 10:15:22,15.08843013,0.0001253,53.2154,69.6388,80.3176,279.7958,0.00015067,2.111e-05,0.0,0 STARLINK-4199,1 52857U 22062AD  23272.42734216  .00002111  00000-0  15067-3 0  9991,2 52857  53.2154  69.6388 0001253  80.3176 279.7958 15.08843013 71711,6917.871,95.437,540.603,538.869,0.0
52857.0,STARLINK-4199,PAYLOAD,2023-09-29 18:12:17,15.08845487,0.0001718,53.2165,68.1525,64.8371,295.2799,0.00016722,2.375e-05,0.0,0 STARLINK-4199,1 52857U 22062AD  23272.75854050  .00002375  00000-0  16722-3 0  9997,2 52857  53.2165  68.1525 0001718  64.8371 295.2799 15.08845487 71274,6917.864,95.437,540.917,538.54,0.0
52857.0,STARLINK-4199,PAYLOAD,2023-09-30 16:27:41,15.08846245,0.0001413,53.2166,63.9882,87.9027,272.2127,4.2211e-05,3.84e-06,0.0,0 STARLINK-4199,1 52857U 22062AD  23273.68589941  .00000384  00000-0  42211-4 0  9995,2 52857  53.2166  63.9882 0001413  87.9027 272.2127 15.08846245 71903,6917.861,95.437,540.704,538.749,0.0
52857.0,STARLINK-4199,PAYLOAD,2023-10-01 13:07:42,15.08847722,0.0001496,53.2183,60.1223,90.8123,269.304,0.00010697,1.415e-05,0.0,0 STARLINK-4199,1 52857U 22062AD  23274.54701785  .00001415  00000-0  10697-3 0  9991,2 52857  53.2183  60.1223 0001496  90.8123 269.3040 15.08847722 71543,6917.857,95.437,540.757,538.687,0.0
52857.0,STARLINK-4199,PAYLOAD,2023-10-01 19:29:14,15.08854369,0.000154,53.2183,58.9315,98.5178,261.5989,0.00018428,2.647e-05,0.0,0 STARLINK-4199,1 52857U 22062AD  23274.81197305  .00002647  00000-0  18428-3 0  9996,2 52857  53.2183  58.9315 0001540  98.5178 261.5989 15.08854369 71580,6917.836,95.437,540.767,538.636,0.0
52857.0,STARLINK-4199,PAYLOAD,2023-10-02 19:20:02,15.08842944,0.0001533,53.2182,54.4712,86.4937,273.623,9.8774e-05,1.284e-05,0.0,0 STARLINK-4199,1 52857U 22062AD  23275.80558086  .00001284  00000-0  98774-4 0  9992,2 52857  53.2182  54.4712 0001533  86.4937 273.6230 15.08842944 72223,6917.871,95.437,540.797,538.676,0.0
52857.0,STARLINK-4199,PAYLOAD,2023-10-03 14:24:39,15.08843755,0.0001596,53.2181,50.9017,86.7334,273.3841,0.00013597,1.877e-05,0.0,0 STARLINK-4199,1 52857U 22062AD  23276.60046225  .00001877  00000-0  13597-3 0  9995,2 52857  53.2181  50.9017 0001596  86.7334 273.3841 15.08843755 71858,6917.869,95.437,540.838,538.63,0.0
52857.0,STARLINK-4199,PAYLOAD,2023-10-03 17:35:25,15.08849937,0.0001451,53.2178,50.3082,80.5298,279.5859,0.00029833,4.464e-05,0.0,0 STARLINK-4199,1 52857U 22062AD  23276.73293881  .00004464  00000-0  29833-3 0  9996,2 52857  53.2178  50.3082 0001451  80.5298 279.5859 15.08849937 71878,6917.85,95.437,540.719,538.711,0.0
52857.0,STARLINK-4199,PAYLOAD,2023-10-04 09:29:17,15.08843544,0.0001555,53.2186,47.3348,75.9252,284.1913,0.00015755,2.221e-05,0.0,0 STARLINK-4199,1 52857U 22062AD  23277.39534315  .00002221  00000-0  15755-3 0  9996,2 52857  53.2186  47.3348 0001555  75.9252 284.1913 15.08843544 72468,6917.87,95.437,540.81,538.659,0.0
52857.0,STARLINK-4199,PAYLOAD,2023-10-04 14:15:26,15.08852099,0.00016,53.2189,46.441,91.3299,268.7876,0.00034634,5.23e-05,0.0,0 STARLINK-4199,1 52857U 22062AD  23277.59406001  .00005230  00000-0  34634-3 0  9998,2 52857  53.2189  46.4410 0001600  91.3299 268.7876 15.08852099 72006,6917.843,95.437,540.815,538.602,0.0
52857.0,STARLINK-4199,PAYLOAD,2023-10-04 15:50:49,15.08856439,0.0001435,53.2184,46.1482,85.3169,274.7987,0.00044957,6.877e-05,0.0,0 STARLINK-4199,1 52857U 22062AD  23277.66029880  .00006877  00000-0  44957-3 0  9999,2 52857  53.2184  46.1482 0001435  85.3169 274.7987 15.08856439 72509,6917.83,95.437,540.688,538.702,0.0
52857.0,STARLINK-4199,PAYLOAD,2023-10-05 01:23:08,15.08845833,0.000144,53.2182,44.3624,80.3943,279.7212,0.00018799,2.706e-05,0.0,0 STARLINK-4199,1 52857U 22062AD  23278.05774019  .00002706  00000-0  18799-3 0  9996,2 52857  53.2182  44.3624 0001440  80.3943 279.7212 15.08845833 72564,6917.863,95.437,540.724,538.731,0.0
